[{"OBJECT_NAME":"KORSAT-7","OBJECT_ID":"2023-185B","EPOCH":"2026-03-09T23:44:55.136256","MEAN_MOTION":15.00898391,"ECCENTRICITY":0.00224341,"INCLINATION":97.6243,"RA_OF_ASC_NODE":135.089,"ARG_OF_PERICENTER":307.6562,"MEAN_ANOMALY":52.2627,"EPHEMERIS_TYPE":0,"CLASSIFICATION_TYPE":"U","NORAD_CAT_ID":58463,"ELEMENT_SET_NO":999,"REV_AT_EPOCH":12440,"BSTAR":0.00023536002,"MEAN_MOTION_DOT":2.951e-5,"MEAN_MOTION_DDOT":0},{"OBJECT_NAME":"STARLINK-35254","OBJECT_ID":"2025-211Y","EPOCH":"2026-03-09T15:52:20.572608","MEAN_MOTION":15.0566699,"ECCENTRICITY":4.843e-5,"INCLINATION":97.6022,"RA_OF_ASC_NODE":114.1278,"ARG_OF_PERICENTER":101.373,"MEAN_ANOMALY":258.7551,"EPHEMERIS_TYPE":0,"CLASSIFICATION_TYPE":"U","NORAD_CAT_ID":65674,"ELEMENT_SET_NO":999,"REV_AT_EPOCH":2704,"BSTAR":0.00037087316,"MEAN_MOTION_DOT":5.297e-5,"MEAN_MOTION_DDOT":0}]
